IRIDIUM 155             
1 43573U 18061E   23077.06951375  .00000354  00000+0  11924-3 0  9994
2 43573  86.4038 192.7823 0001841  94.8413 265.2993 14.34220642243214
IRIDIUM 154             
1 43574U 18061F   23077.39932792  .00000538  00000+0  18494-3 0  9996
2 43574  86.4043 192.7206 0002385  92.2332 267.9137 14.34216917243301
IRIDIUM 163             
1 43575U 18061G   23077.79892064  .00000478  00000+0  16377-3 0  9999
2 43575  86.4038 192.5060 0002252 100.9084 259.2365 14.34213673243332
IRIDIUM 156             
1 43576U 18061H   23077.84332218  .00000545  00000+0  18746-3 0  9993
2 43576  86.4039 192.4933 0001994 105.0964 255.0453 14.34214078243328
IRIDIUM 164             
1 43577U 18061J   23077.40567857  .00000627  00000+0  21668-3 0  9993
2 43577  86.4041 192.6979 0002310  97.1131 263.0327 14.34214743243311
IRIDIUM 159             
1 43578U 18061K   23077.58326478  .00000550  00000+0  18921-3 0  9998
2 43578  86.4038 192.5858 0002181  95.2255 264.9190 14.34220375243300
IRIDIUM 180             
1 43922U 19002A   23077.58276874  .00000386  00000+0  13089-3 0  9998
2 43922  86.3963 129.5584 0002461  95.0326 265.1151 14.34216977218959
IRIDIUM 176             
1 43923U 19002B   23077.85059954  .00001466  00000+0  22865-3 0  9999
2 43923  86.6093 129.4881 0002265 100.6160 259.5312 14.72248976224709
IRIDIUM 168             
1 43924U 19002C   23077.57642505  .00000528  00000+0  18143-3 0  9991
2 43924  86.3967 129.6047 0002360  92.1498 267.9968 14.34216681218897
IRIDIUM 173             
1 43925U 19002D   23077.42420207  .00000373  00000+0  12599-3 0  9996
2 43925  86.3958 129.6057 0002435  93.4455 266.7020 14.34214445218868
IRIDIUM 169             
1 43926U 19002E   23077.70033069  .00000035  00000+0  47807-5 0  9991
2 43926  86.4280 161.0646 0001717 312.4136  47.6916 14.38594331219640
IRIDIUM 172             
1 43927U 19002F   23077.55740006  .00000397  00000+0  13464-3 0  9992
2 43927  86.3959 129.5544 0002382  93.9654 266.1814 14.34216119218885
IRIDIUM 175             
1 43928U 19002G   23077.84413332  .00001483  00000+0  23132-3 0  9994
2 43928  86.1505 128.4106 0002330 100.7681 259.3798 14.72239916224696
IRIDIUM 171             
1 43929U 19002H   23077.60813509  .00000300  00000+0  10016-3 0  9993
2 43929  86.3972 129.7078 0002475  92.7590 267.3890 14.34218842218887
IRIDIUM 170             
1 43930U 19002J   23077.65291023  .00001442  00000+0  22481-3 0  9998
2 43930  86.6092 129.5758 0002344  95.9760 264.1725 14.72252212224685
IRIDIUM 167             
1 43931U 19002K   23077.53202643  .00000145  00000+0  44873-4 0  9995
2 43931  86.3964 129.5769 0002478  94.8549 265.2930 14.34219959218877
